[{"OBJECT_NAME":"STARLINK-4272","OBJECT_ID":"2022-062AN","EPOCH":"2026-03-09T06:21:59.461056","MEAN_MOTION":15.08831406,"ECCENTRICITY":0.00013557,"INCLINATION":53.2188,"RA_OF_ASC_NODE":26.0231,"ARG_OF_PERICENTER":114.2772,"MEAN_ANOMALY":245.8362,"EPHEMERIS_TYPE":0,"CLASSIFICATION_TYPE":"U","NORAD_CAT_ID":52866,"ELEMENT_SET_NO":999,"REV_AT_EPOCH":20586,"BSTAR":-5.7877137e-5,"MEAN_MOTION_DOT":-1.209e-5,"MEAN_MOTION_DDOT":0},{"OBJECT_NAME":"CSC-1","OBJECT_ID":"2023-155G","EPOCH":"2026-03-09T17:46:02.342496","MEAN_MOTION":15.1003596,"ECCENTRICITY":0.00075041,"INCLINATION":97.5446,"RA_OF_ASC_NODE":139.7305,"ARG_OF_PERICENTER":212.9992,"MEAN_ANOMALY":147.077,"EPHEMERIS_TYPE":0,"CLASSIFICATION_TYPE":"U","NORAD_CAT_ID":58022,"ELEMENT_SET_NO":999,"REV_AT_EPOCH":13272,"BSTAR":0.00054556609,"MEAN_MOTION_DOT":8.819e-5,"MEAN_MOTION_DDOT":0}]
