STARLINK-4272           
1 52866U 22062AN  26068.26527154 -.00001209  00000+0 -57877-4 0  9994
2 52866  53.2188  26.0231 0001355 114.2772 245.8362 15.08831406205865
CSC-1                   
1 58022U 23155G   26068.74030489  .00008819  00000+0  54557-3 0  9994
2 58022  97.5446 139.7305 0007504 212.9992 147.0770 15.10035960132723
